NORAD_CAT_ID,OBJECT_NAME,OBJECT_TYPE,EPOCH,MEAN_MOTION,ECCENTRICITY,INCLINATION,RA_OF_ASC_NODE,ARG_OF_PERICENTER,MEAN_ANOMALY,BSTAR,MEAN_MOTION_DOT,MEAN_MOTION_DDOT,TLE_LINE0,TLE_LINE1,TLE_LINE2,SEMIMAJOR_AXIS,PERIOD,APOGEE,PERIGEE,DECAYED
51112.0,STARLINK-3374,PAYLOAD,2024-08-06 16:45:29,15.08848749,0.0001687,53.2172,12.7745,88.0953,272.0232,0.0018059,0.00028577,0.0,0 STARLINK-3374,1 51112U 22005J   24219.69825712  .00028577  00000-0  18059-2 0  9991,2 51112  53.2172  12.7745 0001687  88.0953 272.0232 15.08848749142439,6917.854,95.437,540.886,538.552,0.0
51112.0,STARLINK-3374,PAYLOAD,2024-08-07 16:36:16,15.08854117,0.0001685,53.2163,8.3139,88.5741,271.5445,0.00062919,9.744e-05,0.0,0 STARLINK-3374,1 51112U 22005J   24220.69185392  .00009744  00000-0  62919-3 0  9996,2 51112  53.2163   8.3139 0001685  88.5741 271.5445 15.08854117142587,6917.837,95.437,540.868,538.537,0.0
51112.0,STARLINK-3374,PAYLOAD,2024-08-08 13:16:16,15.08853009,0.0001768,53.2178,4.4465,115.2243,244.8932,0.00039678,6.035e-05,0.0,0 STARLINK-3374,1 51112U 22005J   24221.55296975  .00006035  00000-0  39678-3 0  9998,2 51112  53.2178   4.4465 0001768 115.2243 244.8932 15.08853009141604,6917.841,95.437,540.929,538.483,0.0
51112.0,STARLINK-3374,PAYLOAD,2024-08-08 16:27:02,15.08855739,0.0001589,53.2183,3.8525,104.2215,255.8954,0.00056156,8.664e-05,0.0,0 STARLINK-3374,1 51112U 22005J   24221.68544922  .00008664  00000-0  56156-3 0  9990,2 51112  53.2183   3.8525 0001589 104.2215 255.8954 15.08855739142731,6917.832,95.437,540.797,538.598,0.0
51112.0,STARLINK-3374,PAYLOAD,2024-08-09 13:07:03,15.08842287,0.0001321,53.2182,359.9879,100.7322,259.3818,0.0007639,0.00011891,0.0,0 STARLINK-3374,1 51112U 22005J   24222.54657361  .00011891  00000-0  76390-3 0  9996,2 51112  53.2182 359.9879 0001321 100.7322 259.3818 15.08842287142867,6917.873,95.437,540.652,538.825,0.0
51112.0,STARLINK-3374,PAYLOAD,2024-08-09 19:28:36,15.08865551,0.0001212,53.218,358.7986,100.0536,260.0593,0.0017552,0.00027776,0.0,0 STARLINK-3374,1 51112U 22005J   24222.81153014  .00027776  00000-0  17552-2 0  9995,2 51112  53.2180 358.7986 0001212 100.0536 260.0593 15.08865551142903,6917.802,95.436,540.506,538.829,0.0
51112.0,STARLINK-3374,PAYLOAD,2024-08-10 12:57:50,15.08862857,0.000184,53.2173,355.5253,128.41,231.7058,0.0012358,0.00019447,0.0,0 STARLINK-3374,1 51112U 22005J   24223.54016577  .00019447  00000-0  12358-2 0  9993,2 51112  53.2173 355.5253 0001840 128.4100 231.7058 15.08862857143015,6917.811,95.436,540.948,538.403,0.0
51112.0,STARLINK-3374,PAYLOAD,2024-08-10 14:33:13,15.0886078,0.0001165,53.2178,355.2244,76.884,283.2282,0.0010506,0.00016481,0.0,0 STARLINK-3374,1 51112U 22005J   24223.60640687  .00016481  00000-0  10506-2 0  9993,2 51112  53.2178 355.2244 0001165  76.8840 283.2282 15.08860780141915,6917.817,95.436,540.488,538.876,0.0
51112.0,STARLINK-3374,PAYLOAD,2024-08-10 17:43:59,15.08877109,0.0001173,53.2177,354.6323,72.6732,287.4388,0.0017664,0.00027965,0.0,0 STARLINK-3374,1 51112U 22005J   24223.73888406  .00027965  00000-0  17664-2 0  9991,2 51112  53.2177 354.6323 0001173  72.6732 287.4388 15.08877109141936,6917.767,95.435,540.443,538.821,0.0
51112.0,STARLINK-3374,PAYLOAD,2024-08-11 01:40:55,15.08840626,0.0001171,53.2173,353.1483,81.7112,278.4013,0.00076415,0.00011895,0.0,0 STARLINK-3374,1 51112U 22005J   24224.07008985  .00011895  00000-0  76415-3 0  9990,2 51112  53.2173 353.1483 0001171  81.7112 278.4013 15.08840626143092,6917.878,95.438,540.554,538.933,0.0
51112.0,STARLINK-3374,PAYLOAD,2024-08-11 08:02:29,15.08831188,0.0002637,53.2177,351.9629,86.1802,273.9491,0.0010388,0.00016279,0.0,0 STARLINK-3374,1 51112U 22005J   24224.33505887  .00016279  00000-0  10388-2 0  9999,2 51112  53.2177 351.9629 0002637  86.1802 273.9491 15.08831188143135,6917.907,95.438,541.597,537.948,0.0
51112.0,STARLINK-3374,PAYLOAD,2024-08-11 17:34:48,15.0882878,0.0002521,53.2175,350.1794,80.8049,279.3228,0.0010488,0.00016438,0.0,0 STARLINK-3374,1 51112U 22005J   24224.73250362  .00016438  00000-0  10488-2 0  9996,2 51112  53.2175 350.1794 0002521  80.8049 279.3228 15.08828780143191,6917.915,95.438,541.524,538.036,0.0
51112.0,STARLINK-3374,PAYLOAD,2024-08-12 14:14:47,15.08883204,8.85e-05,53.2166,346.3085,112.952,247.1566,0.0016437,0.00025999,0.0,0 STARLINK-3374,1 51112U 22005J   24225.59360477  .00025999  00000-0  16437-2 0  9992,2 51112  53.2166 346.3085 0000885 112.9520 247.1566 15.08883204142215,6917.748,95.435,540.226,539.001,0.0
51112.0,STARLINK-3374,PAYLOAD,2024-08-12 17:25:33,15.08895684,0.0001992,53.2164,345.7148,97.9811,262.1407,0.0017768,0.00028147,0.0,0 STARLINK-3374,1 51112U 22005J   24225.72608008  .00028147  00000-0  17768-2 0  9998,2 51112  53.2164 345.7148 0001992  97.9811 262.1407 15.08895684143342,6917.71,95.434,540.953,538.197,0.0
51112.0,STARLINK-3374,PAYLOAD,2024-08-13 01:22:29,15.08862611,0.0003482,53.2162,344.2284,82.8923,277.2465,0.00025331,3.748e-05,0.0,0 STARLINK-3374,1 51112U 22005J   24226.05728665  .00003748  00000-0  25331-3 0  9993,2 51112  53.2162 344.2284 0003482  82.8923 277.2465 15.08862611143398,6917.811,95.436,542.085,537.267,0.0
51112.0,STARLINK-3374,PAYLOAD,2024-08-13 07:44:02,15.08804003,0.0001781,53.2179,343.0427,81.2248,278.8946,-0.0021609,-0.00034481,0.0,0 STARLINK-3374,1 51112U 22005J   24226.32225224 -.00034481  00000-0 -21609-2 0  9999,2 51112  53.2179 343.0427 0001781  81.2248 278.8946 15.08804003143432,6917.99,95.44,541.088,538.623,0.0
51112.0,STARLINK-3374,PAYLOAD,2024-08-13 14:05:35,15.08804276,0.0002003,53.2145,341.8528,80.7209,279.4009,-0.0013084,-0.00021031,0.0,0 STARLINK-3374,1 51112U 22005J   24226.58721791 -.00021031  00000-0 -13084-2 0  9992,2 51112  53.2145 341.8528 0002003  80.7209 279.4009 15.08804276142362,6917.99,95.44,541.24,538.469,0.0
51112.0,STARLINK-3374,PAYLOAD,2024-08-13 17:16:22,15.08797821,0.0001652,53.2121,341.2533,98.6695,261.4484,-0.00098852,-0.00015968,0.0,0 STARLINK-3374,1 51112U 22005J   24226.71970229 -.00015968  00000-0 -98852-3 0  9998,2 51112  53.2121 341.2533 0001652  98.6695 261.4484 15.08797821143492,6918.009,95.44,541.017,538.731,0.0
51112.0,STARLINK-3374,PAYLOAD,2024-08-14 01:13:18,15.08809035,0.000166,53.2171,339.7676,101.6948,258.423,0.00076389,0.0001188,0.0,0 STARLINK-3374,1 51112U 22005J   24227.05091117  .00011880  00000-0  76389-3 0  9994,2 51112  53.2171 339.7676 0001660 101.6948 258.4230 15.08809035143544,6917.975,95.44,540.988,538.692,0.0
51112.0,STARLINK-3374,PAYLOAD,2024-08-14 13:56:23,15.08861844,0.0001387,53.2172,337.3888,89.6664,270.4487,0.0023301,0.00037013,0.0,0 STARLINK-3374,1 51112U 22005J   24227.58083034  .00037013  00000-0  23301-2 0  9992,2 51112  53.2172 337.3888 0001387  89.6664 270.4487 15.08861844143623,6917.814,95.436,540.638,538.719,0.0
51112.0,STARLINK-3374,PAYLOAD,2024-08-15 01:04:05,15.08854487,0.0001528,53.2171,335.3067,79.6259,280.4905,0.001978,0.00031345,0.0,0 STARLINK-3374,1 51112U 22005J   24228.04450957  .00031345  00000-0  19780-2 0  9994,2 51112  53.2171 335.3067 0001528  79.6259 280.4905 15.08854487143693,6917.836,95.437,540.758,538.644,0.0
51112.0,STARLINK-3374,PAYLOAD,2024-08-15 13:47:10,15.08865088,0.0002256,53.2176,332.9283,82.3275,277.7974,0.0020617,0.000327,0.0,0 STARLINK-3374,1 51112U 22005J   24228.57442962  .00032700  00000-0  20617-2 0  9996,2 51112  53.2176 332.9283 0002256  82.3275 277.7974 15.08865088142669,6917.804,95.436,541.229,538.108,0.0
51112.0,STARLINK-3374,PAYLOAD,2024-08-15 18:33:19,15.08865548,0.0001617,53.2178,332.0363,70.2962,289.8204,0.0020919,0.00033185,0.0,0 STARLINK-3374,1 51112U 22005J   24228.77314746  .00033185  00000-0  20919-2 0  9999,2 51112  53.2178 332.0363 0001617  70.2962 289.8204 15.08865548143808,6917.802,95.436,540.786,538.549,0.0
51112.0,STARLINK-3374,PAYLOAD,2024-08-16 10:27:11,15.08858292,0.0002654,53.2165,329.0587,79.8159,280.3132,0.0012004,0.00018878,0.0,0 STARLINK-3374,1 51112U 22005J   24229.43554833  .00018878  00000-0  12004-2 0  9994,2 51112  53.2165 329.0587 0002654  79.8159 280.3132 15.08858292143908,6917.824,95.436,541.525,537.853,0.0
51112.0,STARLINK-3374,PAYLOAD,2024-08-17 16:39:30,15.08866119,0.000132,53.2168,323.4148,54.8216,305.2899,0.0010501,0.00016476,0.0,0 STARLINK-3374,1 51112U 22005J   24230.69410066  .00016476  00000-0  10501-2 0  9995,2 51112  53.2168 323.4148 0001320  54.8216 305.2899 15.08866119144093,6917.801,95.436,540.579,538.752,0.0
51112.0,STARLINK-3374,PAYLOAD,2024-08-18 02:11:49,15.088409,0.0002996,53.2147,321.622,137.2248,222.8977,0.00078971,0.00012303,0.0,0 STARLINK-3374,1 51112U 22005J   24231.09154148  .00012303  00000-0  78971-3 0  9997,2 51112  53.2147 321.6220 0002996 137.2248 222.8977 15.08840900144150,6917.878,95.437,541.815,537.67,0.0
51112.0,STARLINK-3374,PAYLOAD,2024-08-18 13:19:31,15.08841342,0.0001436,53.2165,319.5482,103.3696,256.7456,0.00034627,5.227e-05,0.0,0 STARLINK-3374,1 51112U 22005J   24231.55522661  .00005227  00000-0  34627-3 0  9994,2 51112  53.2165 319.5482 0001436 103.3696 256.7456 15.08841342144222,6917.876,95.437,540.735,538.748,0.0
51112.0,STARLINK-3374,PAYLOAD,2024-08-18 16:30:17,15.08844979,0.0001321,53.2164,318.9522,96.5396,263.5747,0.00069808,0.00010841,0.0,0 STARLINK-3374,1 51112U 22005J   24231.68770624  .00010841  00000-0  69808-3 0  9999,2 51112  53.2164 318.9522 0001321  96.5396 263.5747 15.08844979143139,6917.865,95.437,540.644,538.816,0.0
51112.0,STARLINK-3374,PAYLOAD,2024-08-19 09:59:32,15.08838667,0.0001763,53.2163,315.6806,120.6175,239.4991,0.0004636,7.098e-05,0.0,0 STARLINK-3374,1 51112U 22005J   24232.41634930  .00007098  00000-0  46360-3 0  9998,2 51112  53.2163 315.6806 0001763 120.6175 239.4991 15.08838667144356,6917.884,95.438,540.969,538.53,0.0
51112.0,STARLINK-3374,PAYLOAD,2024-08-20 13:01:06,15.08849308,0.0001473,53.2164,310.6292,76.5676,283.548,0.0004146,6.318e-05,0.0,0 STARLINK-3374,1 51112U 22005J   24233.54243066  .00006318  00000-0  41460-3 0  9999,2 51112  53.2164 310.6292 0001473  76.5676 283.5480 15.08849308144520,6917.852,95.437,540.736,538.698,0.0
